{
  "type": "FeatureCollection",
  "features": [
    {
      "type": "Feature",
      "properties": {
        "crop_id": "plot-1",
        "name": "L1",
        "crop_type": "rice",
        "area_rai": 2,
        "center_lat": 14.496194,
        "center_lon": 102.150057
      },
      "geometry": {
        "type": "Polygon",
        "coordinates": [
          [
            [
              192752.14749788318,
              1604503.8448019007
            ],
            [
              192825.56746686276,
              1604569.0153361636
            ],
            [
              192853.6155448999,
              1604540.1423146548
            ],
            [
              192780.19557592034,
              1604471.6720065053
            ],
            [
              192752.14749788318,
              1604503.8448019007
            ]
          ]
        ]
      }
    },
    {
      "type": "Feature",
      "properties": {
        "crop_id": "plot-2",
        "name": "L2",
        "crop_type": "rice",
        "area_rai": 1,
        "center_lat": 14.4967,
        "center_lon": 102.150619
      },
      "geometry": {
        "type": "Polygon",
        "coordinates": [
          [
            [
              192829.0734766173,
              1604572.1088741818
            ],
            [
              192864.33981003167,
              1604603.2504902375
            ],
            [
              192891.07875961397,
              1604574.9202493369
            ],
            [
              192856.50284705072,
              1604542.617145069
            ],
            [
              192829.0734766173,
              1604572.1088741818
            ]
          ]
        ]
      }
    },
    {
      "type": "Feature",
      "properties": {
        "crop_id": "plot-3",
        "name": "L3",
        "crop_type": "rice",
        "area_rai": 1,
        "center_lat": 14.497023,
        "center_lon": 102.150964
      },
      "geometry": {
        "type": "Polygon",
        "coordinates": [
          [
            [
              192868.4645273901,
              1604607.9939151998
            ],
            [
              192899.60614344612,
              1604637.6918801803
            ],
            [
              192927.66902858892,
              1604608.5334889765
            ],
            [
              192894.4502467481,
              1604578.9146578228
            ],
            [
              192868.4645273901,
              1604607.9939151998
            ]
          ]
        ]
      }
    },
    {
      "type": "Feature",
      "properties": {
        "crop_id": "plot-4",
        "name": "L4",
        "crop_type": "rice",
        "area_rai": 2,
        "center_lat": 14.497419,
        "center_lon": 102.151395
      },
      "geometry": {
        "type": "Polygon",
        "coordinates": [
          [
            [
              192903.93709667242,
              1604642.0228334062
            ],
            [
              192961.0644320864,
              1604696.056630802
            ],
            [
              192992.00998876005,
              1604666.4793421663
            ],
            [
              192932.59742128092,
              1604611.3111855353
            ],
            [
              192903.93709667242,
              1604642.0228334062
            ]
          ]
        ]
      }
    },
    {
      "type": "Feature",
      "properties": {
        "crop_id": "plot-6",
        "name": "L6",
        "crop_type": "rice",
        "area_rai": 2.5,
        "center_lat": 14.497228,
        "center_lon": 102.151789
      },
      "geometry": {
        "type": "Polygon",
        "coordinates": [
          [
            [
              192943.26980646205,
              1604614.0173346237
            ],
            [
              192995.59124377026,
              1604662.797160618
            ],
            [
              192996.55288702925,
              1604660.1952004805
            ],
            [
              192997.04603671608,
              1604656.8142316712
            ],
            [
              192997.0147627843,
              1604654.3031220161
            ],
            [
              192996.06088328327,
              1604648.500955761
            ],
            [
              192992.75291480857,
              1604638.290412177
            ],
            [
              192988.731505614,
              1604627.5672954705
            ],
            [
              192985.85522740934,
              1604621.5441810098
            ],
            [
              192982.3288458201,
              1604615.6082617294
            ],
            [
              192978.1510909914,
              1604609.348241982
            ],
            [
              192974.7996153853,
              1604604.462153421
            ],
            [
              192962.6956025685,
              1604589.8294166785
            ],
            [
              192943.26980646205,
              1604614.0173346237
            ]
          ]
        ]
      }
    },
    {
      "type": "Feature",
      "properties": {
        "crop_id": "plot-5",
        "name": "L5",
        "crop_type": "rice",
        "area_rai": 2,
        "center_lat": 14.496275,
        "center_lon": 102.150677
      },
      "geometry": {
        "type": "Polygon",
        "coordinates": [
          [
            [
              192919.19855089855,
              1604593.3511685769
            ],
            [
              192938.44382255472,
              1604568.215270368
            ],
            [
              192861.86497961663,
              1604512.9191800884
            ],
            [
              192803.34448765486,
              1604475.6616781575
            ],
            [
              192791.8954693557,
              1604470.0177593946
            ],
            [
              192784.1140574106,
              1604467.5472891456
            ],
            [
              192919.19855089855,
              1604593.3511685769
            ]
          ]
        ]
      }
    },
    {
      "type": "Feature",
      "properties": {
        "crop_id": "plot-12",
        "name": "U7",
        "crop_type": "rice",
        "area_rai": 5,
        "center_lat": 14.498098,
        "center_lon": 102.151025
      },
      "geometry": {
        "type": "Polygon",
        "coordinates": [
          [
            [
              192848.0871293278,
              1604725.6472815333
            ],
            [
              192921.93216109337,
              1604792.8022244119
            ],
            [
              192977.90872760364,
              1604732.2526857508
            ],
            [
              192902.6058288187,
              1604659.8688655847
            ],
            [
              192848.0871293278,
              1604725.6472815333
            ]
          ]
        ]
      }
    },
    {
      "type": "Feature",
      "properties": {
        "crop_id": "plot-8",
        "name": "U4",
        "crop_type": "rice",
        "area_rai": 2,
        "center_lat": 14.496493,
        "center_lon": 102.14953
      },
      "geometry": {
        "type": "Polygon",
        "coordinates": [
          [
            [
              192759.50251097663,
              1604591.5813622517
            ],
            [
              192782.3629116339,
              1604568.1047192037
            ],
            [
              192700.98863863398,
              1604490.3696537346
            ],
            [
              192678.99407244986,
              1604516.1549780427
            ],
            [
              192759.50251097663,
              1604591.5813622517
            ]
          ]
        ]
      }
    },
    {
      "type": "Feature",
      "properties": {
        "crop_id": "plot-0",
        "name": "W",
        "crop_type": "rice",
        "area_rai": 2.5,
        "center_lat": 14.496884,
        "center_lon": 102.151386
      },
      "geometry": {
        "type": "Polygon",
        "coordinates": [
          [
            [
              192921.0559340033,
              1604595.1983254002
            ],
            [
              192940.58827177034,
              1604612.2161311335
            ],
            [
              192961.1569334108,
              1604588.312295199
            ],
            [
              192941.02663139947,
              1604570.585403752
            ],
            [
              192921.0559340033,
              1604595.1983254002
            ]
          ]
        ]
      }
    },
    {
      "type": "Feature",
      "properties": {
        "crop_id": "plot-9",
        "name": "U5",
        "crop_type": "rice",
        "area_rai": 2.5,
        "center_lat": 14.49691,
        "center_lon": 102.150098
      },
      "geometry": {
        "type": "Polygon",
        "coordinates": [
          [
            [
              192812.7796769879,
              1604599.501771405
            ],
            [
              192813.6056768125,
              1604598.688896989
            ],
            [
              192813.55975536667,
              1604598.6439435524
            ],
            [
              192782.3629116339,
              1604568.1047192037
            ],
            [
              192759.50251097663,
              1604591.5813622517
            ],
            [
              192792.2628137038,
              1604622.3002599238
            ],
            [
              192812.7796769879,
              1604599.501771405
            ]
          ]
        ]
      }
    },
    {
      "type": "Feature",
      "properties": {
        "crop_id": "plot-10",
        "name": "U6",
        "crop_type": "rice",
        "area_rai": 2.5,
        "center_lat": 14.497097,
        "center_lon": 102.150321
      },
      "geometry": {
        "type": "Polygon",
        "coordinates": [
          [
            [
              192834.0369216273,
              1604618.689457766
            ],
            [
              192834.0369216271,
              1604618.6894577658
            ],
            [
              192834.0369216267,
              1604618.6894577653
            ],
            [
              192813.6056768125,
              1604598.688896989
            ],
            [
              192812.7796769879,
              1604599.501771405
            ],
            [
              192792.2628137038,
              1604622.3002599238
            ],
            [
              192813.04177724355,
              1604641.6053584085
            ],
            [
              192834.03692162753,
              1604618.6894577662
            ],
            [
              192834.0369216273,
              1604618.689457766
            ]
          ]
        ]
      }
    },
    {
      "type": "Feature",
      "properties": {
        "crop_id": "plot-7",
        "name": "U1",
        "crop_type": "rice",
        "area_rai": 1,
        "center_lat": 14.495571,
        "center_lon": 102.148638
      },
      "geometry": {
        "type": "Polygon",
        "coordinates": [
          [
            [
              192668.00243751003,
              1604459.2013263134
            ],
            [
              192616.8645999059,
              1604410.8817013875
            ],
            [
              192594.67486865522,
              1604438.1353029117
            ],
            [
              192646.21005465992,
              1604485.814261692
            ],
            [
              192668.00243751003,
              1604459.2013263134
            ]
          ]
        ]
      }
    },
    {
      "type": "Feature",
      "properties": {
        "crop_id": "plot-11",
        "name": "U2",
        "crop_type": "rice",
        "area_rai": 2,
        "center_lat": 14.496345,
        "center_lon": 102.149678
      },
      "geometry": {
        "type": "Polygon",
        "coordinates": [
          [
            [
              192625.75064090342,
              1604400.6168789002
            ],
            [
              192616.8645999059,
              1604410.8817013875
            ],
            [
              192669.07970786138,
              1604460.2192281599
            ],
            [
              192700.98863863398,
              1604490.3696537346
            ],
            [
              192782.3629116339,
              1604568.1047192037
            ],
            [
              192813.55975536667,
              1604598.6439435524
            ],
            [
              192813.6056768125,
              1604598.688896989
            ],
            [
              192834.0369216267,
              1604618.6894577653
            ],
            [
              192834.0369216271,
              1604618.6894577658
            ],
            [
              192848.76055674622,
              1604633.1027234148
            ],
            [
              192860.03401849396,
              1604620.2056774315
            ],
            [
              192625.75064090342,
              1604400.6168789002
            ]
          ]
        ]
      }
    },
    {
      "type": "Feature",
      "properties": {
        "crop_id": "plot-14",
        "name": "GH-2",
        "crop_type": "rice",
        "area_rai": 2.5,
        "center_lat": 14.497444,
        "center_lon": 102.15051
      },
      "geometry": {
        "type": "Polygon",
        "coordinates": [
          [
            [
              192833.6214681557,
              1604650.3983029851
            ],
            [
              192852.59354863822,
              1604668.647299248
            ],
            [
              192857.72477285773,
              1604662.9046144204
            ],
            [
              192838.7303378756,
              1604644.7977743102
            ],
            [
              192833.6214681557,
              1604650.3983029851
            ]
          ]
        ]
      }
    },
    {
      "type": "Feature",
      "properties": {
        "crop_id": "plot-13",
        "name": "GH-1",
        "crop_type": "rice",
        "area_rai": 2.5,
        "center_lat": 14.497391,
        "center_lon": 102.150561
      },
      "geometry": {
        "type": "Polygon",
        "coordinates": [
          [
            [
              192839.02297813795,
              1604644.644739874
            ],
            [
              192858.0394298713,
              1604662.700636778
            ],
            [
              192863.08657662844,
              1604657.1112559976
            ],
            [
              192844.22425029695,
              1604638.8248769222
            ],
            [
              192839.02297813795,
              1604644.644739874
            ]
          ]
        ]
      }
    },
    {
      "type": "Feature",
      "properties": {
        "crop_id": "plot-15",
        "name": "U3",
        "crop_type": "rice",
        "area_rai": 2.5,
        "center_lat": 14.495905,
        "center_lon": 102.148982
      },
      "geometry": {
        "type": "Polygon",
        "coordinates": [
          [
            [
              192678.99407244986,
              1604516.1549780427
            ],
            [
              192700.98863863386,
              1604490.3696537348
            ],
            [
              192691.81525534065,
              1604481.7018167512
            ],
            [
              192669.07970786138,
              1604460.2192281599
            ],
            [
              192668.0024375104,
              1604459.2013263137
            ],
            [
              192646.21005465992,
              1604485.814261692
            ],
            [
              192678.99407244986,
              1604516.1549780427
            ]
          ]
        ]
      }
    }
  ]
}