{
  "type": "FeatureCollection",
  "name": "ridmb",
  "crs": {
    "type": "name",
    "properties": {
      "name": "urn:ogc:def:crs:OGC:1.3:CRS84"
    }
  },
  "features": [
    {
      "type": "Feature",
      "properties": {
        "crop_id": "fbd7920c-1a05-487c-a79e-a4003ab30be9",
        "area_rai": 2.51,
        "stage_oae": "4",
        "plot_name": "Smart Farm Plot 1",
        "control_mode": "AWD",
        "solenoid_valve": "SV-U1",
        "flow_meter": "F-U1",
        "moisture_sensor": "H-P1-00000007"
      },
      "geometry": {
        "type": "Polygon",
        "coordinates": [
          [
            [
              102.150619905442,
              14.497781855222858
            ],
            [
              102.15094713494182,
              14.497483547584666
            ],
            [
              102.1504452265799,
              14.496944711004085
            ],
            [
              102.15010290965438,
              14.497280673060772
            ],
            [
              102.150619905442,
              14.497781855222858
            ]
          ]
        ]
      }
    },
    {
      "type": "Feature",
      "properties": {
        "crop_id": "535d0d0b-afdb-49f2-85dd-74c13ee7b561",
        "area_rai": 2.18,
        "stage_oae": "5",
        "plot_name": "Smart Farm Plot 2",
        "control_mode": "AWD",
        "solenoid_valve": "SV-U2",
        "flow_meter": "F-U2",
        "moisture_sensor": "H-P1-00000006"
      },
      "geometry": {
        "type": "Polygon",
        "coordinates": [
          [
            [
              102.15138584375381,
              14.496699476452138
            ],
            [
              102.1513918787241,
              14.496692659817882
            ],
            [
              102.1499602496624,
              14.495713659120376
            ],
            [
              102.14994817972183,
              14.49573670593717
            ],
            [
              102.14992940425873,
              14.495764621796553
            ],
            [
              102.14995488524437,
              14.495786370196189
            ],
            [
              102.15001355856657,
              14.495841877296048
            ],
            [
              102.15011481195688,
              14.495937635125681
            ],
            [
              102.15019427239895,
              14.496004827883137
            ],
            [
              102.15026266872883,
              14.496052219864062
            ],
            [
              102.15033944696188,
              14.496114868152066
            ],
            [
              102.15042024850845,
              14.496188552903368
            ],
            [
              102.15048294514418,
              14.496247630527684
            ],
            [
              102.15053927153349,
              14.496301839103179
            ],
            [
              102.15060498565435,
              14.49636351351426
            ],
            [
              102.15066734701395,
              14.496417722061405
            ],
            [
              102.15077128261328,
              14.496514778049807
            ],
            [
              102.15082794427872,
              14.496566065143572
            ],
            [
              102.15088326483965,
              14.496618650632458
            ],
            [
              102.15093355625868,
              14.496660848855242
            ],
            [
              102.15098284184933,
              14.496709214500715
            ],
            [
              102.15106062591076,
              14.496784522061908
            ],
            [
              102.15111661702394,
              14.496836458296094
            ],
            [
              102.15115953236817,
              14.49687378745691
            ],
            [
              102.15118635445833,
              14.496899430963726
            ],
            [
              102.15120144188404,
              14.496904299983669
            ],
            [
              102.15123027563095,
              14.496874436659638
            ],
            [
              102.15126447379589,
              14.496840028911752
            ],
            [
              102.15129062533379,
              14.496809191774666
            ],
            [
              102.1513258293271,
              14.496777380828759
            ],
            [
              102.15135633945465,
              14.496741025456412
            ],
            [
              102.15138584375381,
              14.496699476452138
            ]
          ]
        ]
      }
    },
    {
      "type": "Feature",
      "properties": {
        "crop_id": "7072584e-e3cd-4bcc-9221-7a3a23386d2a",
        "area_rai": 5.37,
        "stage_oae": "5",
        "plot_name": "Smart Farm Plot 3",
        "control_mode": "MOISTURE",
        "solenoid_valve": "SV-U7",
        "flow_meter": "F-U7",
        "moisture_sensor": "H-P4-00000010"
      },
      "geometry": {
        "type": "Polygon",
        "coordinates": [
          [
            [
              102.15055955573916,
              14.498078538633262
            ],
            [
              102.15130420401692,
              14.49871020856623
            ],
            [
              102.15183829888701,
              14.498179813687209
            ],
            [
              102.15106146410108,
              14.497566319862877
            ],
            [
              102.15055955573916,
              14.498078538633262
            ]
          ]
        ]
      }
    },
    {
      "type": "Feature",
      "properties": {
        "crop_id": "5ea77d99-c3fa-43f5-9087-be15de92d615",
        "area_rai": 1.13,
        "stage_oae": "5",
        "plot_name": "Smart Farm Plot 4",
        "control_mode": "MOISTURE",
        "solenoid_valve": "SV-U3",
        "flow_meter": "F-L2",
        "moisture_sensor": null
      },
      "geometry": {
        "type": "Polygon",
        "coordinates": [
          [
            [
              102.1507377550006,
              14.497031543492158
            ],
            [
              102.15103548020124,
              14.497337966777412
            ],
            [
              102.151082418859,
              14.497285706038914
            ],
            [
              102.15113271027803,
              14.49723474371255
            ],
            [
              102.15118031948805,
              14.497165928323316
            ],
            [
              102.1512309461832,
              14.4971169135755
            ],
            [
              102.151283249259,
              14.497056862379624
            ],
            [
              102.15119808912277,
              14.496977659696384
            ],
            [
              102.15112432837486,
              14.496917933064092
            ],
            [
              102.15105291455984,
              14.496848468373653
            ],
            [
              102.15098049491644,
              14.49677867905993
            ],
            [
              102.15093288570642,
              14.496823798665265
            ],
            [
              102.15087957680225,
              14.496876059491616
            ],
            [
              102.15082794427872,
              14.496937409141609
            ],
            [
              102.1507789939642,
              14.496988696137556
            ],
            [
              102.1507377550006,
              14.497031543492158
            ]
          ]
        ]
      }
    },
    {
      "type": "Feature",
      "properties": {
        "crop_id": "aabb24c1-b673-42f3-b90a-56f3d81d53a8",
        "area_rai": 1.17,
        "stage_oae": "5",
        "plot_name": "Smart Farm Plot 5",
        "control_mode": "MOISTURE",
        "solenoid_valve": "SV-L2",
        "flow_meter": null,
        "moisture_sensor": "H-P3-00000002"
      },
      "geometry": {
        "type": "Polygon",
        "coordinates": [
          [
            [
              102.15039644390345,
              14.496712784867306
            ],
            [
              102.15047590434551,
              14.496792636848182
            ],
            [
              102.15054396539927,
              14.49686404916444
            ],
            [
              102.15062443166971,
              14.496934163052558
            ],
            [
              102.15069685131311,
              14.497013365751336
            ],
            [
              102.15076357126236,
              14.496951691521122
            ],
            [
              102.15081755071878,
              14.496894237091215
            ],
            [
              102.15086583048105,
              14.496841976269145
            ],
            [
              102.15090841054916,
              14.49679458445712
            ],
            [
              102.15094696730375,
              14.49675141245515
            ],
            [
              102.15082995593548,
              14.496632932857647
            ],
            [
              102.15074982494116,
              14.496559572855933
            ],
            [
              102.15064890682697,
              14.496470307334372
            ],
            [
              102.15062543749809,
              14.496450831215796
            ],
            [
              102.15039644390345,
              14.496712784867306
            ]
          ]
        ]
      }
    },
    {
      "type": "Feature",
      "properties": {
        "crop_id": "cc74748e-1c92-4d06-9376-df96924eef4f",
        "area_rai": 1.24,
        "stage_oae": "5",
        "plot_name": "Smart Farm Plot 6",
        "control_mode": "AWD",
        "solenoid_valve": "SV-L3",
        "flow_meter": null,
        "moisture_sensor": null
      },
      "geometry": {
        "type": "Polygon",
        "coordinates": [
          [
            [
              102.15123580768704,
              14.49693692240361
            ],
            [
              102.15189697220922,
              14.497580601461834
            ],
            [
              102.1519442461431,
              14.497528016201247
            ],
            [
              102.15142758563161,
              14.496719114838722
            ],
            [
              102.15123580768704,
              14.49693692240361
            ]
          ]
        ]
      }
    },
    {
      "type": "Feature",
      "properties": {
        "crop_id": "f0b3c562-6060-4ebd-897d-d47b642f8d23",
        "area_rai": 1.24,
        "stage_oae": "5",
        "plot_name": "Smart Farm Plot 7",
        "control_mode": "MOISTURE",
        "solenoid_valve": "SV-L4",
        "flow_meter": null,
        "moisture_sensor": null
      },
      "geometry": {
        "type": "Polygon",
        "coordinates": [
          [
            [
              102.15123580768704,
              14.49693692240361
            ],
            [
              102.15189697220922,
              14.497580601461834
            ],
            [
              102.1519442461431,
              14.497528016201247
            ],
            [
              102.15142758563161,
              14.496719114838722
            ],
            [
              102.15123580768704,
              14.49693692240361
            ]
          ]
        ]
      }
    },
    {
      "type": "Feature",
      "properties": {
        "crop_id": "491f0baf-452a-437a-ab0c-68b621ba5922",
        "area_rai": 2.7,
        "stage_oae": "5",
        "plot_name": "Smart Farm Plot 8",
        "control_mode": "MOISTURE",
        "solenoid_valve": "SV-U4",
        "flow_meter": null,
        "moisture_sensor": "H-P2-00000004"
      },
      "geometry": {
        "type": "Polygon",
        "coordinates": [
          [
            [
              102.14989537373185,
              14.496475655616209
            ],
            [
              102.14933076873422,
              14.495969925194856
            ],
            [
              102.14901091530919,
              14.496317574408238
            ],
            [
              102.14959362521768,
              14.496834015883628
            ],
            [
              102.14989537373185,
              14.496475655616209
            ]
          ]
        ]
      }
    },
    {
      "type": "Feature",
      "properties": {
        "crop_id": "5177f028-0209-47dd-a9a3-36a9e73f239d",
        "area_rai": 2.03,
        "stage_oae": "5",
        "plot_name": "Smart Farm Plot 9",
        "control_mode": "MOISTURE",
        "solenoid_valve": "SV-L6",
        "flow_meter": null,
        "moisture_sensor": "H-P2-00000008"
      },
      "geometry": {
        "type": "Polygon",
        "coordinates": [
          [
            [
              102.149753049016,
              14.496098637044312
            ],
            [
              102.15033810585737,
              14.496657601855327
            ],
            [
              102.15041421353817,
              14.496587812481502
            ],
            [
              102.15050641447306,
              14.496508609630629
            ],
            [
              102.15057916939259,
              14.496426160731199
            ],
            [
              102.15047992765903,
              14.496330078510496
            ],
            [
              102.15034045279026,
              14.496190824136946
            ],
            [
              102.15016677975655,
              14.496038260969902
            ],
            [
              102.14998573064804,
              14.495879854847018
            ],
            [
              102.1498566493392,
              14.495983727727268
            ],
            [
              102.149753049016,
              14.496098637044312
            ]
          ]
        ]
      }
    },
    {
      "type": "Feature",
      "properties": {
        "crop_id": "6ab85dc0-7486-42ca-a7e1-62d4f2e80bd1",
        "area_rai": 2.68,
        "stage_oae": "5",
        "plot_name": "Smart Farm Plot 10",
        "control_mode": "AWD",
        "solenoid_valve": "SV-U5",
        "flow_meter": null,
        "moisture_sensor": "H-P3-00000001"
      },
      "geometry": {
        "type": "Polygon",
        "coordinates": [
          [
            [
              102.15004926547408,
              14.497234904409005
            ],
            [
              102.15036744251847,
              14.496888230438636
            ],
            [
              102.14980317279696,
              14.496390616010748
            ],
            [
              102.14947326108813,
              14.496733720142288
            ],
            [
              102.15004926547408,
              14.497234904409005
            ]
          ]
        ]
      }
    },
    {
      "type": "Feature",
      "properties": {
        "crop_id": "7012604e-07d7-4223-843f-c16bb4727843",
        "area_rai": 2.03,
        "stage_oae": "5",
        "plot_name": "Smart Farm Plot 11",
        "control_mode": "AWD",
        "solenoid_valve": "SV-U6",
        "flow_meter": null,
        "moisture_sensor": null
      },
      "geometry": {
        "type": "Polygon",
        "coordinates": [
          [
            [
              102.15107705444098,
              14.49735062616211
            ],
            [
              102.15106900781393,
              14.497361662584709
            ],
            [
              102.15159673243761,
              14.497854081233143
            ],
            [
              102.15164199471474,
              14.497807338837589
            ],
            [
              102.15169664472342,
              14.497761570232377
            ],
            [
              102.15174727141857,
              14.497707362013983
            ],
            [
              102.15179588645697,
              14.49765477678346
            ],
            [
              102.15185757726431,
              14.497598945537401
            ],
            [
              102.15180862694979,
              14.497549930885365
            ],
            [
              102.1517388895154,
              14.497485660000713
            ],
            [
              102.15166211128235,
              14.497417493890548
            ],
            [
              102.1515903621912,
              14.49735062616211
            ],
            [
              102.15151324868202,
              14.497275318793308
            ],
            [
              102.15144451707602,
              14.497202283605157
            ],
            [
              102.15138550847769,
              14.497147426047995
            ],
            [
              102.15131744742393,
              14.497084128849783
            ],
            [
              102.15126112103462,
              14.49714353083632
            ],
            [
              102.1512158587575,
              14.497185728959161
            ],
            [
              102.15116959065199,
              14.49723798970015
            ],
            [
              102.15111795812845,
              14.497298690048435
            ],
            [
              102.15107705444098,
              14.49735062616211
            ]
          ]
        ]
      }
    },
    {
      "type": "Feature",
      "properties": {
        "crop_id": "c34e125d-805a-4bc3-a0f6-7ba717a47f28",
        "area_rai": 2.6,
        "stage_oae": "5",
        "plot_name": "Smart Farm Plot 12",
        "control_mode": "AWD",
        "solenoid_valve": "SV-L1",
        "flow_meter": "F-L1",
        "moisture_sensor": null
      },
      "geometry": {
        "type": "Polygon",
        "coordinates": [
          [
            [
              102.14852979406714,
              14.495219446641187
            ],
            [
              102.148233409971,
              14.495570667668066
            ],
            [
              102.14880304411054,
              14.496075749795622
            ],
            [
              102.14907998219132,
              14.495674865296333
            ],
            [
              102.14852979406714,
              14.495219446641187
            ]
          ]
        ]
      }
    }
  ]
}